{"type": "FeatureCollection", "features": [ {"type": "Feature", "properties": {"norad_id": 34546, "name": "COSMOS 2251 DEB", "group": "cosmos-2251-debris", "lat": 15.710693688780928, "lon": -89.41770375912724, "alt_km": 728.7616111629814, "timestamp": "2025-12-03T17:47:51.112776+00:00", "meta": {"OBJECT_NAME": "COSMOS 2251 DEB", "OBJECT_ID": "1993-036UG", "EPOCH": "2025-12-02T22:18:50.159808", "MEAN_MOTION": 14.45333108, "ECCENTRICITY": 0.00216815, "INCLINATION": 74.0314, "RA_OF_ASC_NODE": 267.4753, "ARG_OF_PERICENTER": 342.3195, "MEAN_ANOMALY": 131.664, "EPHEMERIS_TYPE": 0, "CLASSIFICATION_TYPE": "U", "NORAD_CAT_ID": 34546, "ELEMENT_SET_NO": 999, "REV_AT_EPOCH": 87884, "BSTAR": 0.0009692575, "MEAN_MOTION_DOT": 3.39e-05, "MEAN_MOTION_DDOT": 0}, "tle": {"line1": "1 34546U 93036UG  25336.92974722  .00003390  00000+0  96926-3 0  9993", "line2": "2 34546  74.0314 267.4753 0021681 342.3195 131.6640 14.45333108878840"}}, "geometry": {"type": "Point", "coordinates": [-89.41770375912724, 15.710693688780928]}}, {"type": "Feature", "properties": {"norad_id": 34547, "name": "COSMOS 2251 DEB", "group": "cosmos-2251-debris", "lat": 54.57116810174124, "lon": 141.97366915005728, "alt_km": 659.604161133404, "timestamp": "2025-12-03T17:47:51.112787+00:00", "meta": {"OBJECT_NAME": "COSMOS 2251 DEB", "OBJECT_ID": "1993-036UH", "EPOCH": "2025-12-02T10:32:28.829184", "MEAN_MOTION": 14.71896843, "ECCENTRICITY": 0.00189154, "INCLINATION": 74.0295, "RA_OF_ASC_NODE": 120.7688, "ARG_OF_PERICENTER": 201.1584, "MEAN_ANOMALY": 158.8808, "EPHEMERIS_TYPE": 0, "CLASSIFICATION_TYPE": "U", "NORAD_CAT_ID": 34547, "ELEMENT_SET_NO": 999, "REV_AT_EPOCH": 88370, "BSTAR": 0.0023605263, "MEAN_MOTION_DOT": 0.00014826, "MEAN_MOTION_DDOT": 0}, "tle": {"line1": "1 34547U 93036UH  25336.43922256  .00014826  00000+0  23605-2 0  9994", "line2": "2 34547  74.0295 120.7688 0018915 201.1584 158.8808 14.71896843883704"}}, "geometry": {"type": "Point", "coordinates": [141.97366915005728, 54.57116810174124]}}, {"type": "Feature", "properties": {"norad_id": 34553, "name": "COSMOS 2251 DEB", "group": "cosmos-2251-debris", "lat": 59.87372948091601, "lon": -121.41295751016663, "alt_km": 705.0395149624273, "timestamp": "2025-12-03T17:47:51.112798+00:00", "meta": {"OBJECT_NAME": "COSMOS 2251 DEB", "OBJECT_ID": "1993-036UP", "EPOCH": "2025-12-03T11:08:18.044736", "MEAN_MOTION": 14.57573342, "ECCENTRICITY": 0.0019685, "INCLINATION": 74.0256, "RA_OF_ASC_NODE": 209.535, "ARG_OF_PERICENTER": 287.7085, "MEAN_ANOMALY": 120.9605, "EPHEMERIS_TYPE": 0, "CLASSIFICATION_TYPE": "U", "NORAD_CAT_ID": 34553, "ELEMENT_SET_NO": 999, "REV_AT_EPOCH": 87961, "BSTAR": 0.0016014, "MEAN_MOTION_DOT": 7.287e-05, "MEAN_MOTION_DDOT": 0}, "tle": {"line1": "1 34553U 93036UP  25337.46409774  .00007287  00000+0  16014-2 0  9999", "line2": "2 34553  74.0256 209.5350 0019685 287.7085 120.9605 14.57573342879611"}}, "geometry": {"type": "Point", "coordinates": [-121.41295751016663, 59.87372948091601]}}, {"type": "Feature", "properties": {"norad_id": 34554, "name": "COSMOS 2251 DEB", "group": "cosmos-2251-debris", "lat": 73.98828143259591, "lon": 41.39186792509012, "alt_km": 752.135027690304, "timestamp": "2025-12-03T17:47:51.112809+00:00", "meta": {"OBJECT_NAME": "COSMOS 2251 DEB", "OBJECT_ID": "1993-036UQ", "EPOCH": "2025-12-02T18:19:59.022048", "MEAN_MOTION": 14.37902673, "ECCENTRICITY": 0.00225472, "INCLINATION": 74.0383, "RA_OF_ASC_NODE": 317.3604, "ARG_OF_PERICENTER": 22.1475, "MEAN_ANOMALY": 47.5558, "EPHEMERIS_TYPE": 0, "CLASSIFICATION_TYPE": "U", "NORAD_CAT_ID": 34554, "ELEMENT_SET_NO": 999, "REV_AT_EPOCH": 87612, "BSTAR": 0.0004572497, "MEAN_MOTION_DOT": 1.358e-05, "MEAN_MOTION_DDOT": 0}, "tle": {"line1": "1 34554U 93036UQ  25336.76387757  .00001358  00000+0  45725-3 0  9993", "line2": "2 34554  74.0383 317.3604 0022547  22.1475  47.5558 14.37902673876123"}}, "geometry": {"type": "Point", "coordinates": [41.39186792509012, 73.98828143259591]}}, {"type": "Feature", "properties": {"norad_id": 34556, "name": "COSMOS 2251 DEB", "group": "cosmos-2251-debris", "lat": 41.66401790005628, "lon": 157.31139535339406, "alt_km": 640.0253319729409, "timestamp": "2025-12-03T17:47:51.112820+00:00", "meta": {"OBJECT_NAME": "COSMOS 2251 DEB", "OBJECT_ID": "1993-036US", "EPOCH": "2025-12-03T11:14:24.353088", "MEAN_MOTION": 14.77306147, "ECCENTRICITY": 0.0009145, "INCLINATION": 74.0148, "RA_OF_ASC_NODE": 143.0694, "ARG_OF_PERICENTER": 201.746, "MEAN_ANOMALY": 189.6247, "EPHEMERIS_TYPE": 0, "CLASSIFICATION_TYPE": "U", "NORAD_CAT_ID": 34556, "ELEMENT_SET_NO": 999, "REV_AT_EPOCH": 88192, "BSTAR": 0.0030486, "MEAN_MOTION_DOT": 0.00021698, "MEAN_MOTION_DDOT": 0}, "tle": {"line1": "1 34556U 93036US  25337.46833742  .00021698  00000+0  30486-2 0  9999", "line2": "2 34556  74.0148 143.0694 0009145 201.7460 189.6247 14.77306147881920"}}, "geometry": {"type": "Point", "coordinates": [157.31139535339406, 41.66401790005628]}}, {"type": "Feature", "properties": {"norad_id": 34560, "name": "COSMOS 2251 DEB", "group": "cosmos-2251-debris", "lat": 56.93271150264981, "lon": -46.467293870646465, "alt_km": 655.2756510381059, "timestamp": "2025-12-03T17:47:51.112831+00:00", "meta": {"OBJECT_NAME": "COSMOS 2251 DEB", "OBJECT_ID": "1993-036UW", "EPOCH": "2025-12-03T06:37:21.000000", "MEAN_MOTION": 14.71719361, "ECCENTRICITY": 0.0015384, "INCLINATION": 74.0159, "RA_OF_ASC_NODE": 160.5584, "ARG_OF_PERICENTER": 241.2457, "MEAN_ANOMALY": 292.2217, "EPHEMERIS_TYPE": 0, "CLASSIFICATION_TYPE": "U", "NORAD_CAT_ID": 34560, "ELEMENT_SET_NO": 999, "REV_AT_EPOCH": 88112, "BSTAR": 0.0026421, "MEAN_MOTION_DOT": 0.00016519, "MEAN_MOTION_DDOT": 0}, "tle": {"line1": "1 34560U 93036UW  25337.27593750  .00016519  00000+0  26421-2 0  9995", "line2": "2 34560  74.0159 160.5584 0015384 241.2457 292.2217 14.71719361881126"}}, "geometry": {"type": "Point", "coordinates": [-46.467293870646465, 56.93271150264981]}}, {"type": "Feature", "properties": {"norad_id": 34563, "name": "COSMOS 2251 DEB", "group": "cosmos-2251-debris", "lat": -11.146345113265667, "lon": -142.7262415409573, "alt_km": 733.0303579276688, "timestamp": "2025-12-03T17:47:51.112841+00:00", "meta": {"OBJECT_NAME": "COSMOS 2251 DEB", "OBJECT_ID": "1993-036UZ", "EPOCH": "2025-12-03T11:30:53.614944", "MEAN_MOTION": 14.46460045, "ECCENTRICITY": 0.0013771, "INCLINATION": 74.0388, "RA_OF_ASC_NODE": 220.9949, "ARG_OF_PERICENTER": 315.3305, "MEAN_ANOMALY": 110.513, "EPHEMERIS_TYPE": 0, "CLASSIFICATION_TYPE": "U", "NORAD_CAT_ID": 34563, "ELEMENT_SET_NO": 999, "REV_AT_EPOCH": 88063, "BSTAR": 0.00072358, "MEAN_MOTION_DOT": 2.579e-05, "MEAN_MOTION_DDOT": 0}, "tle": {"line1": "1 34563U 93036UZ  25337.47978721  .00002579  00000+0  72358-3 0  9997", "line2": "2 34563  74.0388 220.9949 0013771 315.3305 110.5130 14.46460045880637"}}, "geometry": {"type": "Point", "coordinates": [-142.7262415409573, -11.146345113265667]}}, {"type": "Feature", "properties": {"norad_id": 34564, "name": "COSMOS 2251 DEB", "group": "cosmos-2251-debris", "lat": -42.76351681016902, "lon": -120.6956659847117, "alt_km": 753.187633695582, "timestamp": "2025-12-03T17:47:51.112852+00:00", "meta": {"OBJECT_NAME": "COSMOS 2251 DEB", "OBJECT_ID": "1993-036VA", "EPOCH": "2025-12-03T05:22:10.608096", "MEAN_MOTION": 14.40662556, "ECCENTRICITY": 0.0018626, "INCLINATION": 74.0328, "RA_OF_ASC_NODE": 255.6164, "ARG_OF_PERICENTER": 1.3338, "MEAN_ANOMALY": 149.3916, "EPHEMERIS_TYPE": 0, "CLASSIFICATION_TYPE": "U", "NORAD_CAT_ID": 34564, "ELEMENT_SET_NO": 999, "REV_AT_EPOCH": 87869, "BSTAR": 0.00040747, "MEAN_MOTION_DOT": 1.277e-05, "MEAN_MOTION_DDOT": 0}, "tle": {"line1": "1 34564U 93036VA  25337.22373389  .00001277  00000+0  40747-3 0  9991", "line2": "2 34564  74.0328 255.6164 0018626   1.3338 149.3916 14.40662556878698"}}, "geometry": {"type": "Point", "coordinates": [-120.6956659847117, -42.76351681016902]}}, {"type": "Feature", "properties": {"norad_id": 34567, "name": "COSMOS 2251 DEB", "group": "cosmos-2251-debris", "lat": -0.11111092786827417, "lon": -6.9930412707267, "alt_km": 794.9704459727618, "timestamp": "2025-12-03T17:47:51.112863+00:00", "meta": {"OBJECT_NAME": "COSMOS 2251 DEB", "OBJECT_ID": "1993-036VD", "EPOCH": "2025-12-03T00:40:02.275968", "MEAN_MOTION": 14.24000572, "ECCENTRICITY": 0.00746841, "INCLINATION": 74.0399, "RA_OF_ASC_NODE": 174.2594, "ARG_OF_PERICENTER": 250.5731, "MEAN_ANOMALY": 232.6611, "EPHEMERIS_TYPE": 0, "CLASSIFICATION_TYPE": "U", "NORAD_CAT_ID": 34567, "ELEMENT_SET_NO": 999, "REV_AT_EPOCH": 86986, "BSTAR": 0.00026159176, "MEAN_MOTION_DOT": 5.92e-06, "MEAN_MOTION_DDOT": 0}, "tle": {"line1": "1 34567U 93036VD  25337.02780412  .00000592  00000+0  26159-3 0  9991", "line2": "2 34567  74.0399 174.2594 0074684 250.5731 232.6611 14.24000572869866"}}, "geometry": {"type": "Point", "coordinates": [-6.9930412707267, -0.11111092786827417]}}, {"type": "Feature", "properties": {"norad_id": 34569, "name": "COSMOS 2251 DEB", "group": "cosmos-2251-debris", "lat": -36.60744802678403, "lon": -157.90934951357943, "alt_km": 800.2105623329599, "timestamp": "2025-12-03T17:47:51.112874+00:00", "meta": {"OBJECT_NAME": "COSMOS 2251 DEB", "OBJECT_ID": "1993-036VF", "EPOCH": "2025-12-03T11:31:28.580160", "MEAN_MOTION": 14.2470951, "ECCENTRICITY": 0.0156868, "INCLINATION": 73.9904, "RA_OF_ASC_NODE": 214.878, "ARG_OF_PERICENTER": 45.4126, "MEAN_ANOMALY": 18.0849, "EPHEMERIS_TYPE": 0, "CLASSIFICATION_TYPE": "U", "NORAD_CAT_ID": 34569, "ELEMENT_SET_NO": 999, "REV_AT_EPOCH": 86836, "BSTAR": 0.00080346, "MEAN_MOTION_DOT": 2.1e-05, "MEAN_MOTION_DDOT": 0}, "tle": {"line1": "1 34569U 93036VF  25337.48019190  .00002100  00000+0  80346-3 0  9996", "line2": "2 34569  73.9904 214.8780 0156868  45.4126  18.0849 14.24709510868361"}}, "geometry": {"type": "Point", "coordinates": [-157.90934951357943, -36.60744802678403]}}]}